[{"OBJECT_NAME":"ZHONGXING-11","OBJECT_ID":"2013-020A","EPOCH":"2026-04-24T17:32:26.349792","MEAN_MOTION":1.00274217,"ECCENTRICITY":0.0001494,"INCLINATION":0.0222,"RA_OF_ASC_NODE":295.6622,"ARG_OF_PERICENTER":102.4154,"MEAN_ANOMALY":175.6572,"EPHEMERIS_TYPE":0,"CLASSIFICATION_TYPE":"U","NORAD_CAT_ID":39157,"ELEMENT_SET_NO":999,"REV_AT_EPOCH":4736,"BSTAR":0,"MEAN_MOTION_DOT":-3.05e-6,"MEAN_MOTION_DDOT":0},{"OBJECT_NAME":"EUTELSAT 7B","OBJECT_ID":"2013-022A","EPOCH":"2026-04-25T20:08:38.475744","MEAN_MOTION":1.00271179,"ECCENTRICITY":0.0005907,"INCLINATION":0.075,"RA_OF_ASC_NODE":19.7025,"ARG_OF_PERICENTER":357.7592,"MEAN_ANOMALY":145.5336,"EPHEMERIS_TYPE":0,"CLASSIFICATION_TYPE":"U","NORAD_CAT_ID":39163,"ELEMENT_SET_NO":999,"REV_AT_EPOCH":4742,"BSTAR":0,"MEAN_MOTION_DOT":3.4e-7,"MEAN_MOTION_DDOT":0},{"OBJECT_NAME":"WGS F5 (USA 243)","OBJECT_ID":"2013-024A","EPOCH":"2026-04-25T11:38:56.158080","MEAN_MOTION":1.00272214,"ECCENTRICITY":2.78e-5,"INCLINATION":0.0157,"RA_OF_ASC_NODE":233.8848,"ARG_OF_PERICENTER":60.4157,"MEAN_ANOMALY":41.4352,"EPHEMERIS_TYPE":0,"CLASSIFICATION_TYPE":"U","NORAD_CAT_ID":39168,"ELEMENT_SET_NO":999,"REV_AT_EPOCH":4664,"BSTAR":0,"MEAN_MOTION_DOT":-2.98e-6,"MEAN_MOTION_DDOT":0},{"OBJECT_NAME":"SES-6","OBJECT_ID":"2013-026A","EPOCH":"2026-04-25T20:15:48.028032","MEAN_MOTION":1.00271216,"ECCENTRICITY":0.0002378,"INCLINATION":0.0243,"RA_OF_ASC_NODE":341.5646,"ARG_OF_PERICENTER":56.7305,"MEAN_ANOMALY":79.0035,"EPHEMERIS_TYPE":0,"CLASSIFICATION_TYPE":"U","NORAD_CAT_ID":39172,"ELEMENT_SET_NO":999,"REV_AT_EPOCH":4720,"BSTAR":0,"MEAN_MOTION_DOT":-2.75e-6,"MEAN_MOTION_DDOT":0},{"OBJECT_NAME":"IRNSS-1A","OBJECT_ID":"2013-034A","EPOCH":"2026-04-25T10:26:55.565376","MEAN_MOTION":1.00272082,"ECCENTRICITY":0.0017045,"INCLINATION":35.609,"RA_OF_ASC_NODE":64.6236,"ARG_OF_PERICENTER":187.4898,"MEAN_ANOMALY":173.0272,"EPHEMERIS_TYPE":0,"CLASSIFICATION_TYPE":"U","NORAD_CAT_ID":39199,"ELEMENT_SET_NO":999,"REV_AT_EPOCH":4684,"BSTAR":0,"MEAN_MOTION_DOT":7.5e-7,"MEAN_MOTION_DDOT":0},{"OBJECT_NAME":"MUOS-2","OBJECT_ID":"2013-036A","EPOCH":"2026-04-25T18:13:38.475840","MEAN_MOTION":1.0027078,"ECCENTRICITY":0.0050525,"INCLINATION":4.8919,"RA_OF_ASC_NODE":45.4347,"ARG_OF_PERICENTER":180.6758,"MEAN_ANOMALY":73.0089,"EPHEMERIS_TYPE":0,"CLASSIFICATION_TYPE":"U","NORAD_CAT_ID":39206,"ELEMENT_SET_NO":999,"REV_AT_EPOCH":4666,"BSTAR":0,"MEAN_MOTION_DOT":-2.4e-7,"MEAN_MOTION_DDOT":0},{"OBJECT_NAME":"ALPHASAT","OBJECT_ID":"2013-038A","EPOCH":"2026-04-25T15:26:26.012832","MEAN_MOTION":1.00272097,"ECCENTRICITY":0.0002288,"INCLINATION":2.992,"RA_OF_ASC_NODE":1.8417,"ARG_OF_PERICENTER":55.792,"MEAN_ANOMALY":52.5005,"EPHEMERIS_TYPE":0,"CLASSIFICATION_TYPE":"U","NORAD_CAT_ID":39215,"ELEMENT_SET_NO":999,"REV_AT_EPOCH":4349,"BSTAR":0,"MEAN_MOTION_DOT":1.21e-6,"MEAN_MOTION_DDOT":0},{"OBJECT_NAME":"INSAT-3D","OBJECT_ID":"2013-038B","EPOCH":"2026-04-25T19:21:30.735072","MEAN_MOTION":1.00272318,"ECCENTRICITY":0.0001492,"INCLINATION":1.7925,"RA_OF_ASC_NODE":83.1654,"ARG_OF_PERICENTER":279.5999,"MEAN_ANOMALY":270.9537,"EPHEMERIS_TYPE":0,"CLASSIFICATION_TYPE":"U","NORAD_CAT_ID":39216,"ELEMENT_SET_NO":999,"REV_AT_EPOCH":4655,"BSTAR":0,"MEAN_MOTION_DOT":-3.51e-6,"MEAN_MOTION_DDOT":0},{"OBJECT_NAME":"WGS F6 (USA 244)","OBJECT_ID":"2013-041A","EPOCH":"2026-04-25T00:59:19.114080","MEAN_MOTION":1.0027051,"ECCENTRICITY":1.438e-5,"INCLINATION":0.0101,"RA_OF_ASC_NODE":229.4927,"ARG_OF_PERICENTER":112.0689,"MEAN_ANOMALY":111.1414,"EPHEMERIS_TYPE":0,"CLASSIFICATION_TYPE":"U","NORAD_CAT_ID":39222,"ELEMENT_SET_NO":999,"REV_AT_EPOCH":4552,"BSTAR":0,"MEAN_MOTION_DOT":0,"MEAN_MOTION_DDOT":0},{"OBJECT_NAME":"ES'HAIL 1","OBJECT_ID":"2013-044A","EPOCH":"2026-04-25T18:51:56.071296","MEAN_MOTION":1.00270484,"ECCENTRICITY":0.0002327,"INCLINATION":0.0563,"RA_OF_ASC_NODE":15.352,"ARG_OF_PERICENTER":16.7905,"MEAN_ANOMALY":130.1089,"EPHEMERIS_TYPE":0,"CLASSIFICATION_TYPE":"U","NORAD_CAT_ID":39233,"ELEMENT_SET_NO":999,"REV_AT_EPOCH":4610,"BSTAR":0,"MEAN_MOTION_DOT":1.29e-6,"MEAN_MOTION_DDOT":0},{"OBJECT_NAME":"GSAT-7","OBJECT_ID":"2013-044B","EPOCH":"2026-04-25T19:05:39.752736","MEAN_MOTION":1.00271614,"ECCENTRICITY":0.0004672,"INCLINATION":0.0874,"RA_OF_ASC_NODE":86.2149,"ARG_OF_PERICENTER":215.0269,"MEAN_ANOMALY":272.9589,"EPHEMERIS_TYPE":0,"CLASSIFICATION_TYPE":"U","NORAD_CAT_ID":39234,"ELEMENT_SET_NO":999,"REV_AT_EPOCH":4473,"BSTAR":0,"MEAN_MOTION_DOT":-9.0e-7,"MEAN_MOTION_DDOT":0},{"OBJECT_NAME":"AMOS-4","OBJECT_ID":"2013-045A","EPOCH":"2026-04-25T19:03:09.993024","MEAN_MOTION":1.00271379,"ECCENTRICITY":0.000322,"INCLINATION":0.0161,"RA_OF_ASC_NODE":238.7958,"ARG_OF_PERICENTER":144.2997,"MEAN_ANOMALY":181.5059,"EPHEMERIS_TYPE":0,"CLASSIFICATION_TYPE":"U","NORAD_CAT_ID":39237,"ELEMENT_SET_NO":999,"REV_AT_EPOCH":4643,"BSTAR":0,"MEAN_MOTION_DOT":-6.0e-8,"MEAN_MOTION_DDOT":0},{"OBJECT_NAME":"AEHF-3 (USA 246)","OBJECT_ID":"2013-050A","EPOCH":"2026-04-25T14:35:48.733152","MEAN_MOTION":1.00268296,"ECCENTRICITY":0.008857,"INCLINATION":5.1645,"RA_OF_ASC_NODE":67.6565,"ARG_OF_PERICENTER":188.4088,"MEAN_ANOMALY":52.3148,"EPHEMERIS_TYPE":0,"CLASSIFICATION_TYPE":"U","NORAD_CAT_ID":39256,"ELEMENT_SET_NO":999,"REV_AT_EPOCH":4512,"BSTAR":0,"MEAN_MOTION_DOT":1.9e-7,"MEAN_MOTION_DDOT":0},{"OBJECT_NAME":"ASTRA 2E","OBJECT_ID":"2013-056A","EPOCH":"2026-04-25T18:52:48.485856","MEAN_MOTION":1.00272069,"ECCENTRICITY":0.0002322,"INCLINATION":0.0616,"RA_OF_ASC_NODE":5.2399,"ARG_OF_PERICENTER":30.062,"MEAN_ANOMALY":130.215,"EPHEMERIS_TYPE":0,"CLASSIFICATION_TYPE":"U","NORAD_CAT_ID":39285,"ELEMENT_SET_NO":999,"REV_AT_EPOCH":4589,"BSTAR":0,"MEAN_MOTION_DOT":1.37e-6,"MEAN_MOTION_DDOT":0}]
